{"type": "FeatureCollection", "features": [ {"type": "Feature", "properties": {"norad_id": 39122, "name": "EUTELSAT 117 WEST A", "group": "eutelsat", "lat": -0.04171397029843593, "lon": -104.30069155712975, "alt_km": 35773.98206800108, "timestamp": "2025-12-20T18:51:31.389115+00:00", "meta": {"OBJECT_NAME": "EUTELSAT 117 WEST A", "OBJECT_ID": "2013-012A", "EPOCH": "2025-12-20T10:15:38.712960", "MEAN_MOTION": 1.00274588, "ECCENTRICITY": 0.00028226, "INCLINATION": 0.0305, "RA_OF_ASC_NODE": 302.0312, "ARG_OF_PERICENTER": 332.7573, "MEAN_ANOMALY": 211.6045, "EPHEMERIS_TYPE": 0, "CLASSIFICATION_TYPE": "U", "NORAD_CAT_ID": 39122, "ELEMENT_SET_NO": 999, "REV_AT_EPOCH": 4664, "BSTAR": 0, "MEAN_MOTION_DOT": 1e-07, "MEAN_MOTION_DDOT": 0}, "tle": {"line1": "1 39122U 13012A   25354.42753140  .00000010  00000+0  00000+0 0  9998", "line2": "2 39122   0.0305 302.0312 0002822 332.7573 211.6045  1.00274588 46646"}}, "geometry": {"type": "Point", "coordinates": [-104.30069155712975, -0.04171397029843593]}}, {"type": "Feature", "properties": {"norad_id": 39163, "name": "EUTELSAT 7B", "group": "eutelsat", "lat": 0.03306554453051107, "lon": 19.525143988047528, "alt_km": 35776.365406766614, "timestamp": "2025-12-20T18:51:31.389143+00:00", "meta": {"OBJECT_NAME": "EUTELSAT 7B", "OBJECT_ID": "2013-022A", "EPOCH": "2025-12-20T06:24:55.272960", "MEAN_MOTION": 1.00270737, "ECCENTRICITY": 0.0004381, "INCLINATION": 0.0652, "RA_OF_ASC_NODE": 359.0101, "ARG_OF_PERICENTER": 323.4978, "MEAN_ANOMALY": 229.8249, "EPHEMERIS_TYPE": 0, "CLASSIFICATION_TYPE": "U", "NORAD_CAT_ID": 39163, "ELEMENT_SET_NO": 999, "REV_AT_EPOCH": 4615, "BSTAR": 0, "MEAN_MOTION_DOT": 7.2e-07, "MEAN_MOTION_DDOT": 0}, "tle": {"line1": "1 39163U 13022A   25354.26730640  .00000072  00000+0  00000+0 0  9994", "line2": "2 39163   0.0652 359.0101 0004381 323.4978 229.8249  1.00270737 46157"}}, "geometry": {"type": "Point", "coordinates": [19.525143988047528, 0.03306554453051107]}}, {"type": "Feature", "properties": {"norad_id": 39612, "name": "EXPRESS-AT1", "group": "eutelsat", "lat": 0.04583738380928956, "lon": 68.46514713873714, "alt_km": 35784.375708485786, "timestamp": "2025-12-20T18:51:31.389158+00:00", "meta": {"OBJECT_NAME": "EXPRESS-AT1", "OBJECT_ID": "2014-010A", "EPOCH": "2025-12-19T13:31:46.041312", "MEAN_MOTION": 1.00270605, "ECCENTRICITY": 4.94e-05, "INCLINATION": 0.022, "RA_OF_ASC_NODE": 3.3546, "ARG_OF_PERICENTER": 88.7338, "MEAN_ANOMALY": 255.2488, "EPHEMERIS_TYPE": 0, "CLASSIFICATION_TYPE": "U", "NORAD_CAT_ID": 39612, "ELEMENT_SET_NO": 999, "REV_AT_EPOCH": 4301, "BSTAR": 0, "MEAN_MOTION_DOT": 0, "MEAN_MOTION_DDOT": 0}, "tle": {"line1": "1 39612U 14010A   25353.56372733  .00000000  00000+0  00000+0 0  9999", "line2": "2 39612   0.0220   3.3546 0000494  88.7338 255.2488  1.00270605 43015"}}, "geometry": {"type": "Point", "coordinates": [68.46514713873714, 0.04583738380928956]}}, {"type": "Feature", "properties": {"norad_id": 39613, "name": "EXPRESS-AT2", "group": "eutelsat", "lat": 0.004444374210106068, "lon": 152.33402563599265, "alt_km": 35789.496327509456, "timestamp": "2025-12-20T18:51:31.389171+00:00", "meta": {"OBJECT_NAME": "EXPRESS-AT2", "OBJECT_ID": "2014-010B", "EPOCH": "2025-12-20T14:07:41.615040", "MEAN_MOTION": 1.00271282, "ECCENTRICITY": 0.00010295, "INCLINATION": 0.0178, "RA_OF_ASC_NODE": 326.0495, "ARG_OF_PERICENTER": 324.7522, "MEAN_ANOMALY": 150.3983, "EPHEMERIS_TYPE": 0, "CLASSIFICATION_TYPE": "U", "NORAD_CAT_ID": 39613, "ELEMENT_SET_NO": 999, "REV_AT_EPOCH": 4271, "BSTAR": 0, "MEAN_MOTION_DOT": -2.58e-06, "MEAN_MOTION_DDOT": 0}, "tle": {"line1": "1 39613U 14010B   25354.58867610 -.00000258  00000+0  00000+0 0  9992", "line2": "2 39613   0.0178 326.0495 0001029 324.7522 150.3983  1.00271282 42712"}}, "geometry": {"type": "Point", "coordinates": [152.33402563599265, 0.004444374210106068]}}, {"type": "Feature", "properties": {"norad_id": 39773, "name": "EUTELSAT 3B", "group": "eutelsat", "lat": 0.017753923304574547, "lon": 15.610174535074067, "alt_km": 35799.793825116634, "timestamp": "2025-12-20T18:51:31.389182+00:00", "meta": {"OBJECT_NAME": "EUTELSAT 3B", "OBJECT_ID": "2014-030A", "EPOCH": "2025-12-20T06:23:47.880096", "MEAN_MOTION": 1.0027252, "ECCENTRICITY": 0.00041648, "INCLINATION": 0.0609, "RA_OF_ASC_NODE": 6.0714, "ARG_OF_PERICENTER": 226.7459, "MEAN_ANOMALY": 315.3284, "EPHEMERIS_TYPE": 0, "CLASSIFICATION_TYPE": "U", "NORAD_CAT_ID": 39773, "ELEMENT_SET_NO": 999, "REV_AT_EPOCH": 4227, "BSTAR": 0, "MEAN_MOTION_DOT": 4.4e-07, "MEAN_MOTION_DDOT": 0}, "tle": {"line1": "1 39773U 14030A   25354.26652639  .00000044  00000+0  00000+0 0  9991", "line2": "2 39773   0.0609   6.0714 0004164 226.7459 315.3284  1.00272520 42274"}}, "geometry": {"type": "Point", "coordinates": [15.610174535074067, 0.017753923304574547]}}, {"type": "Feature", "properties": {"norad_id": 40425, "name": "EUTELSAT 115 WEST B", "group": "eutelsat", "lat": 0.0122686893922646, "lon": -102.39043340929705, "alt_km": 35779.562785944996, "timestamp": "2025-12-20T18:51:31.389194+00:00", "meta": {"OBJECT_NAME": "EUTELSAT 115 WEST B", "OBJECT_ID": "2015-010B", "EPOCH": "2025-12-20T10:15:38.712960", "MEAN_MOTION": 1.00282263, "ECCENTRICITY": 8.594e-05, "INCLINATION": 0.012, "RA_OF_ASC_NODE": 150.9289, "ARG_OF_PERICENTER": 117.9576, "MEAN_ANOMALY": 219.3981, "EPHEMERIS_TYPE": 0, "CLASSIFICATION_TYPE": "U", "NORAD_CAT_ID": 40425, "ELEMENT_SET_NO": 999, "REV_AT_EPOCH": 3960, "BSTAR": 0, "MEAN_MOTION_DOT": -3e-08, "MEAN_MOTION_DDOT": 0}, "tle": {"line1": "1 40425U 15010B   25354.42753140 -.00000003  00000+0  00000+0 0  9999", "line2": "2 40425   0.0120 150.9289 0000859 117.9576 219.3981  1.00282263 39607"}}, "geometry": {"type": "Point", "coordinates": [-102.39043340929705, 0.0122686893922646]}}, {"type": "Feature", "properties": {"norad_id": 40875, "name": "EUTELSAT 8 WEST B", "group": "eutelsat", "lat": 0.010965132282562743, "lon": 4.53999789698809, "alt_km": 35787.73170998947, "timestamp": "2025-12-20T18:51:31.389206+00:00", "meta": {"OBJECT_NAME": "EUTELSAT 8 WEST B", "OBJECT_ID": "2015-039B", "EPOCH": "2025-12-20T06:20:40.678944", "MEAN_MOTION": 1.00271049, "ECCENTRICITY": 0.00042772, "INCLINATION": 0.0633, "RA_OF_ASC_NODE": 357.6804, "ARG_OF_PERICENTER": 272.2572, "MEAN_ANOMALY": 266.3389, "EPHEMERIS_TYPE": 0, "CLASSIFICATION_TYPE": "U", "NORAD_CAT_ID": 40875, "ELEMENT_SET_NO": 999, "REV_AT_EPOCH": 3786, "BSTAR": 0, "MEAN_MOTION_DOT": -4.2e-07, "MEAN_MOTION_DDOT": 0}, "tle": {"line1": "1 40875U 15039B   25354.26435971 -.00000042  00000+0  00000+0 0  9993", "line2": "2 40875   0.0633 357.6804 0004277 272.2572 266.3389  1.00271049 37863"}}, "geometry": {"type": "Point", "coordinates": [4.53999789698809, 0.010965132282562743]}}, {"type": "Feature", "properties": {"norad_id": 41310, "name": "EUTELSAT 9B", "group": "eutelsat", "lat": -0.03669062144868925, "lon": 21.530927580740208, "alt_km": 35791.14696474116, "timestamp": "2025-12-20T18:51:31.389217+00:00", "meta": {"OBJECT_NAME": "EUTELSAT 9B", "OBJECT_ID": "2016-005A", "EPOCH": "2025-12-20T06:25:32.712672", "MEAN_MOTION": 1.00272606, "ECCENTRICITY": 0.00044657, "INCLINATION": 0.0619, "RA_OF_ASC_NODE": 71.3783, "ARG_OF_PERICENTER": 203.8271, "MEAN_ANOMALY": 279.2785, "EPHEMERIS_TYPE": 0, "CLASSIFICATION_TYPE": "U", "NORAD_CAT_ID": 41310, "ELEMENT_SET_NO": 999, "REV_AT_EPOCH": 3632, "BSTAR": 0, "MEAN_MOTION_DOT": 8.6e-07, "MEAN_MOTION_DDOT": 0}, "tle": {"line1": "1 41310U 16005A   25354.26773973  .00000086  00000+0  00000+0 0  9996", "line2": "2 41310   0.0619  71.3783 0004465 203.8271 279.2785  1.00272606 36326"}}, "geometry": {"type": "Point", "coordinates": [21.530927580740208, -0.03669062144868925]}}, {"type": "Feature", "properties": {"norad_id": 41382, "name": "EUTELSAT 65 WEST A", "group": "eutelsat", "lat": -0.04081144031009984, "lon": -52.70113592236356, "alt_km": 35778.09742274765, "timestamp": "2025-12-20T18:51:31.389228+00:00", "meta": {"OBJECT_NAME": "EUTELSAT 65 WEST A", "OBJECT_ID": "2016-014A", "EPOCH": "2025-12-20T12:11:56.059872", "MEAN_MOTION": 1.00274098, "ECCENTRICITY": 0.00021262, "INCLINATION": 0.0531, "RA_OF_ASC_NODE": 332.5457, "ARG_OF_PERICENTER": 299.6885, "MEAN_ANOMALY": 294.8871, "EPHEMERIS_TYPE": 0, "CLASSIFICATION_TYPE": "U", "NORAD_CAT_ID": 41382, "ELEMENT_SET_NO": 999, "REV_AT_EPOCH": 3574, "BSTAR": 0, "MEAN_MOTION_DOT": -2.53e-06, "MEAN_MOTION_DDOT": 0}, "tle": {"line1": "1 41382U 16014A   25354.50828773 -.00000253  00000+0  00000+0 0  9998", "line2": "2 41382   0.0531 332.5457 0002126 299.6885 294.8871  1.00274098 35745"}}, "geometry": {"type": "Point", "coordinates": [-52.70113592236356, -0.04081144031009984]}}, {"type": "Feature", "properties": {"norad_id": 41589, "name": "EUTELSAT 117 WEST B", "group": "eutelsat", "lat": 0.010884571041096082, "lon": -104.48858841183309, "alt_km": 35782.242069982174, "timestamp": "2025-12-20T18:51:31.389240+00:00", "meta": {"OBJECT_NAME": "EUTELSAT 117 WEST B", "OBJECT_ID": "2016-038B", "EPOCH": "2025-12-20T10:15:38.712960", "MEAN_MOTION": 1.0027683, "ECCENTRICITY": 6.122e-05, "INCLINATION": 0.0138, "RA_OF_ASC_NODE": 152.9608, "ARG_OF_PERICENTER": 124.2056, "MEAN_ANOMALY": 209.0277, "EPHEMERIS_TYPE": 0, "CLASSIFICATION_TYPE": "U", "NORAD_CAT_ID": 41589, "ELEMENT_SET_NO": 999, "REV_AT_EPOCH": 3487, "BSTAR": 0, "MEAN_MOTION_DOT": 1.1e-07, "MEAN_MOTION_DDOT": 0}, "tle": {"line1": "1 41589U 16038B   25354.42753140  .00000011  00000+0  00000+0 0  9990", "line2": "2 41589   0.0138 152.9608 0000612 124.2056 209.0277  1.00276830 34877"}}, "geometry": {"type": "Point", "coordinates": [-104.48858841183309, 0.010884571041096082]}}]}